start=new Date('2022-04-26T00:00:00.000Z').valueOf();
sats=[{"ECCENTRICITY":"0.00025480","ELEMENT_SET_NO":"999","BSTAR":"0.00228250000000","LAUNCH_DATE":"2021-11-13","EPOCH":"2022-04-25T22:00:00.999936","MEAN_MOTION_DDOT":"0.0000000000000","COUNTRY_CODE":"US","MEAN_ELEMENT_THEORY":"SGP4","SEMIMAJOR_AXIS":"6917.918","REV_AT_EPOCH":"362","NORAD_CAT_ID":"49434","OBJECT_ID":"2021-104AC","REF_FRAME":"TEME","INCLINATION":"53.2185","ARG_OF_PERICENTER":"39.5858","PERIOD":"95.438","CENTER_NAME":"EARTH","MEAN_MOTION_DOT":"0.00036214","TIME_SYSTEM":"UTC","DECAY_DATE":null,"TLE_LINE1":"1 49434U 21104AC  22115.91667824  .00036214  00000-0  22825-2 0  9993","OBJECT_NAME":"STARLINK-3134","MEAN_ANOMALY":"39.0568","RCS_SIZE":"LARGE","RA_OF_ASC_NODE":"95.7973","PERIAPSIS":"538.021","TLE_LINE2":"2 49434  53.2185  95.7973 0002548  39.5858  39.0568 15.08827538  3626","GP_ID":"202029054","OBJECT_TYPE":"PAYLOAD","EPHEMERIS_TYPE":"0","MEAN_MOTION":"15.08827538","FILE":"3416090","SITE":"AFETR","CLASSIFICATION_TYPE":"U","APOAPSIS":"541.546"},{"DECAY_DATE":null,"MEAN_MOTION_DOT":"-0.00032420","TIME_SYSTEM":"UTC","CENTER_NAME":"EARTH","OBJECT_NAME":"STARLINK-3117","MEAN_ANOMALY":"174.7620","TLE_LINE1":"1 49435U 21104AD  22115.91667824 -.00032420  00000-0 -20272-2 0  9995","RCS_SIZE":"LARGE","GP_ID":"202029304","TLE_LINE2":"2 49435  53.2169  75.8025 0002034  48.7230 174.7620 15.08855072  3611","PERIAPSIS":"538.292","RA_OF_ASC_NODE":"75.8025","EPHEMERIS_TYPE":"0","OBJECT_TYPE":"PAYLOAD","CLASSIFICATION_TYPE":"U","FILE":"3416090","SITE":"AFETR","MEAN_MOTION":"15.08855072","APOAPSIS":"541.106","ELEMENT_SET_NO":"999","ECCENTRICITY":"0.00020340","EPOCH":"2022-04-25T22:00:00.999936","LAUNCH_DATE":"2021-11-13","BSTAR":"-0.00202720000000","MEAN_MOTION_DDOT":"0.0000000000000","MEAN_ELEMENT_THEORY":"SGP4","COUNTRY_CODE":"US","REV_AT_EPOCH":"361","SEMIMAJOR_AXIS":"6917.834","OBJECT_ID":"2021-104AD","NORAD_CAT_ID":"49435","ARG_OF_PERICENTER":"48.7230","INCLINATION":"53.2169","REF_FRAME":"TEME","PERIOD":"95.437"},{"APOAPSIS":"541.211","MEAN_MOTION":"15.08823785","FILE":"3416090","SITE":"AFETR","CLASSIFICATION_TYPE":"U","OBJECT_TYPE":"PAYLOAD","EPHEMERIS_TYPE":"0","RA_OF_ASC_NODE":"75.7890","PERIAPSIS":"538.379","GP_ID":"202028558","TLE_LINE2":"2 49436  53.2147  75.7890 0002047  40.7668 187.9054 15.08823785  3611","RCS_SIZE":"LARGE","TLE_LINE1":"1 49436U 21104AE  22115.91667824  .00015471  00000-0  98846-3 0  9994","MEAN_ANOMALY":"187.9054","OBJECT_NAME":"STARLINK-3049","CENTER_NAME":"EARTH","MEAN_MOTION_DOT":"0.00015471","TIME_SYSTEM":"UTC","DECAY_DATE":null,"PERIOD":"95.439","REF_FRAME":"TEME","ARG_OF_PERICENTER":"40.7668","INCLINATION":"53.2147","NORAD_CAT_ID":"49436","OBJECT_ID":"2021-104AE","SEMIMAJOR_AXIS":"6917.930","REV_AT_EPOCH":"361","COUNTRY_CODE":"US","MEAN_ELEMENT_THEORY":"SGP4","MEAN_MOTION_DDOT":"0.0000000000000","LAUNCH_DATE":"2021-11-13","BSTAR":"0.00098846000000","EPOCH":"2022-04-25T22:00:00.999936","ECCENTRICITY":"0.00020470","ELEMENT_SET_NO":"999"},{"PERIAPSIS":"538.314","RA_OF_ASC_NODE":"75.7975","TLE_LINE2":"2 49437  53.2167  75.7975 0002033  43.2235 225.4440 15.08848227  3616","GP_ID":"202028808","RCS_SIZE":"LARGE","TLE_LINE1":"1 49437U 21104AF  22115.91667824 -.00027792  00000-0 -17344-2 0  9999","MEAN_ANOMALY":"225.4440","OBJECT_NAME":"STARLINK-3130","TIME_SYSTEM":"UTC","MEAN_MOTION_DOT":"-0.00027792","CENTER_NAME":"EARTH","DECAY_DATE":null,"APOAPSIS":"541.127","MEAN_MOTION":"15.08848227","CLASSIFICATION_TYPE":"U","FILE":"3416090","SITE":"AFETR","OBJECT_TYPE":"PAYLOAD","EPHEMERIS_TYPE":"0","COUNTRY_CODE":"US","MEAN_ELEMENT_THEORY":"SGP4","MEAN_MOTION_DDOT":"0.0000000000000","BSTAR":"-0.00173440000000","LAUNCH_DATE":"2021-11-13","EPOCH":"2022-04-25T22:00:00.999936","ECCENTRICITY":"0.00020330","ELEMENT_SET_NO":"999","PERIOD":"95.437","INCLINATION":"53.2167","ARG_OF_PERICENTER":"43.2235","REF_FRAME":"TEME","NORAD_CAT_ID":"49437","OBJECT_ID":"2021-104AF","SEMIMAJOR_AXIS":"6917.855","REV_AT_EPOCH":"361"},{"EPHEMERIS_TYPE":"0","OBJECT_TYPE":"PAYLOAD","APOAPSIS":"541.167","SITE":"AFETR","FILE":"3416090","CLASSIFICATION_TYPE":"U","MEAN_MOTION":"15.08843828","OBJECT_NAME":"STARLINK-3044","MEAN_ANOMALY":"246.5264","TLE_LINE1":"1 49438U 21104AG  22115.91667824 -.00014299  00000-0 -88199-3 0  9995","DECAY_DATE":null,"CENTER_NAME":"EARTH","TIME_SYSTEM":"UTC","MEAN_MOTION_DOT":"-0.00014299","TLE_LINE2":"2 49438  53.2177  75.8006 0002072  42.1654 246.5264 15.08843828  3610","GP_ID":"202029555","RA_OF_ASC_NODE":"75.8006","PERIAPSIS":"538.300","RCS_SIZE":"LARGE","OBJECT_ID":"2021-104AG","NORAD_CAT_ID":"49438","REV_AT_EPOCH":"361","SEMIMAJOR_AXIS":"6917.869","PERIOD":"95.437","REF_FRAME":"TEME","ARG_OF_PERICENTER":"42.1654","INCLINATION":"53.2177","EPOCH":"2022-04-25T22:00:00.999936","LAUNCH_DATE":"2021-11-13","BSTAR":"-0.00088199000000","ELEMENT_SET_NO":"999","ECCENTRICITY":"0.00020720","MEAN_ELEMENT_THEORY":"SGP4","COUNTRY_CODE":"US","MEAN_MOTION_DDOT":"0.0000000000000"},{"ECCENTRICITY":"0.00022630","ELEMENT_SET_NO":"999","LAUNCH_DATE":"2021-11-13","BSTAR":"-0.00024862000000","EPOCH":"2022-04-25T22:00:00.999936","MEAN_MOTION_DDOT":"0.0000000000000","COUNTRY_CODE":"US","MEAN_ELEMENT_THEORY":"SGP4","SEMIMAJOR_AXIS":"6917.898","REV_AT_EPOCH":"362","NORAD_CAT_ID":"49439","OBJECT_ID":"2021-104AH","REF_FRAME":"TEME","INCLINATION":"53.2186","ARG_OF_PERICENTER":"39.8461","PERIOD":"95.438","CENTER_NAME":"EARTH","TIME_SYSTEM":"UTC","MEAN_MOTION_DOT":"-0.00004242","DECAY_DATE":null,"TLE_LINE1":"1 49439U 21104AH  22115.91667824 -.00004242  00000-0 -24862-3 0  9990","OBJECT_NAME":"STARLINK-3108","MEAN_ANOMALY":"348.8376","RCS_SIZE":"LARGE","RA_OF_ASC_NODE":"75.7844","PERIAPSIS":"538.197","TLE_LINE2":"2 49439  53.2186  75.7844 0002263  39.8461 348.8376 15.08834288  3622","GP_ID":"202029805","OBJECT_TYPE":"PAYLOAD","EPHEMERIS_TYPE":"0","MEAN_MOTION":"15.08834288","FILE":"3416090","SITE":"AFETR","CLASSIFICATION_TYPE":"U","APOAPSIS":"541.328"},{"NORAD_CAT_ID":"49440","OBJECT_ID":"2021-104AJ","SEMIMAJOR_AXIS":"6917.856","REV_AT_EPOCH":"361","PERIOD":"95.437","INCLINATION":"53.2164","ARG_OF_PERICENTER":"44.3630","REF_FRAME":"TEME","LAUNCH_DATE":"2021-11-13","BSTAR":"0.00092684000000","EPOCH":"2022-04-25T22:00:00.999936","ECCENTRICITY":"0.00024820","ELEMENT_SET_NO":"999","COUNTRY_CODE":"US","MEAN_ELEMENT_THEORY":"SGP4","MEAN_MOTION_DDOT":"0.0000000000000","OBJECT_TYPE":"PAYLOAD","EPHEMERIS_TYPE":"0","APOAPSIS":"541.438","MEAN_MOTION":"15.08847871","CLASSIFICATION_TYPE":"U","FILE":"3416090","SITE":"AFETR","TLE_LINE1":"1 49440U 21104AJ  22115.91667824  .00014497  00000-0  92684-3 0  9990","MEAN_ANOMALY":"264.2799","OBJECT_NAME":"STARLINK-3105","MEAN_MOTION_DOT":"0.00014497","TIME_SYSTEM":"UTC","CENTER_NAME":"EARTH","DECAY_DATE":null,"PERIAPSIS":"538.004","RA_OF_ASC_NODE":"75.8037","GP_ID":"202028058","TLE_LINE2":"2 49440  53.2164  75.8037 0002482  44.3630 264.2799 15.08847871  3618","RCS_SIZE":"LARGE"},{"SEMIMAJOR_AXIS":"6917.881","REV_AT_EPOCH":"362","NORAD_CAT_ID":"49441","OBJECT_ID":"2021-104AK","REF_FRAME":"TEME","ARG_OF_PERICENTER":"41.7905","INCLINATION":"53.2182","PERIOD":"95.438","ECCENTRICITY":"0.00023470","ELEMENT_SET_NO":"999","LAUNCH_DATE":"2021-11-13","BSTAR":"-0.00020753000000","EPOCH":"2022-04-25T22:00:00.999936","MEAN_MOTION_DDOT":"0.0000000000000","COUNTRY_CODE":"US","MEAN_ELEMENT_THEORY":"SGP4","OBJECT_TYPE":"PAYLOAD","EPHEMERIS_TYPE":"0","MEAN_MOTION":"15.08839815","FILE":"3416090","SITE":"AFETR","CLASSIFICATION_TYPE":"U","APOAPSIS":"541.370","CENTER_NAME":"EARTH","MEAN_MOTION_DOT":"-0.00003590","TIME_SYSTEM":"UTC","DECAY_DATE":null,"TLE_LINE1":"1 49441U 21104AK  22115.91667824 -.00003590  00000-0 -20753-3 0  9993","MEAN_ANOMALY":"6.8903","OBJECT_NAME":"STARLINK-3128","RCS_SIZE":"LARGE","RA_OF_ASC_NODE":"75.7820","PERIAPSIS":"538.122","TLE_LINE2":"2 49441  53.2182  75.7820 0002347  41.7905   6.8903 15.08839815  3621","GP_ID":"202028308"},{"RCS_SIZE":"LARGE","PERIAPSIS":"538.119","RA_OF_ASC_NODE":"75.7995","GP_ID":"202029055","TLE_LINE2":"2 49442  53.2177  75.7995 0002362  45.6581 283.0315 15.08837389  3618","MEAN_MOTION_DOT":"0.00004204","TIME_SYSTEM":"UTC","CENTER_NAME":"EARTH","DECAY_DATE":null,"TLE_LINE1":"1 49442U 21104AL  22115.91667824  .00004204  00000-0  28209-3 0  9999","MEAN_ANOMALY":"283.0315","OBJECT_NAME":"STARLINK-3098","MEAN_MOTION":"15.08837389","CLASSIFICATION_TYPE":"U","FILE":"3416090","SITE":"AFETR","APOAPSIS":"541.387","OBJECT_TYPE":"PAYLOAD","EPHEMERIS_TYPE":"0","MEAN_MOTION_DDOT":"0.0000000000000","COUNTRY_CODE":"US","MEAN_ELEMENT_THEORY":"SGP4","ECCENTRICITY":"0.00023620","ELEMENT_SET_NO":"999","BSTAR":"0.00028209000000","LAUNCH_DATE":"2021-11-13","EPOCH":"2022-04-25T22:00:00.999936","ARG_OF_PERICENTER":"45.6581","INCLINATION":"53.2177","REF_FRAME":"TEME","PERIOD":"95.438","SEMIMAJOR_AXIS":"6917.888","REV_AT_EPOCH":"361","NORAD_CAT_ID":"49442","OBJECT_ID":"2021-104AL"},{"PERIOD":"95.438","INCLINATION":"53.2188","ARG_OF_PERICENTER":"37.9501","REF_FRAME":"TEME","OBJECT_ID":"2021-104AM","NORAD_CAT_ID":"49443","REV_AT_EPOCH":"362","SEMIMAJOR_AXIS":"6917.902","MEAN_ELEMENT_THEORY":"SGP4","COUNTRY_CODE":"US","MEAN_MOTION_DDOT":"0.0000000000000","EPOCH":"2022-04-25T22:00:00.999936","BSTAR":"-0.00021786000000","LAUNCH_DATE":"2021-11-13","ELEMENT_SET_NO":"999","ECCENTRICITY":"0.00022350","APOAPSIS":"541.313","CLASSIFICATION_TYPE":"U","FILE":"3416090","SITE":"AFETR","MEAN_MOTION":"15.08833032","EPHEMERIS_TYPE":"0","OBJECT_TYPE":"PAYLOAD","TLE_LINE2":"2 49443  53.2188  75.7834 0002235  37.9501  30.7386 15.08833032  3625","GP_ID":"202029305","PERIAPSIS":"538.221","RA_OF_ASC_NODE":"75.7834","RCS_SIZE":"LARGE","MEAN_ANOMALY":"30.7386","OBJECT_NAME":"STARLINK-3136","TLE_LINE1":"1 49443U 21104AM  22115.91667824 -.00003753  00000-0 -21786-3 0  9993","DECAY_DATE":null,"TIME_SYSTEM":"UTC","MEAN_MOTION_DOT":"-0.00003753","CENTER_NAME":"EARTH"}];
